{
    "links": {
        "self": "http://www.neowsapp.com/rest/v1/neo/3667089?api_key=iIulBulltgU6a56xZRHN4H3l9WmuAYTsLGpBGhQ2"
    },
    "id": "3667089",
    "neo_reference_id": "3667089",
    "name": "(2014 GC34)",
    "designation": "2014 GC34",
    "nasa_jpl_url": "http://ssd.jpl.nasa.gov/sbdb.cgi?sstr=3667089",
    "absolute_magnitude_h": 23.1,
    "estimated_diameter": {
        "kilometers": {
            "estimated_diameter_min": 0.063760979,
            "estimated_diameter_max": 0.1425738833
        },
        "meters": {
            "estimated_diameter_min": 63.7609789875,
            "estimated_diameter_max": 142.5738833281
        },
        "miles": {
            "estimated_diameter_min": 0.0396192233,
            "estimated_diameter_max": 0.0885912765
        },
        "feet": {
            "estimated_diameter_min": 209.1895703015,
            "estimated_diameter_max": 467.7620993781
        }
    },
    "is_potentially_hazardous_asteroid": false,
    "close_approach_data": [
        {
            "close_approach_date": "2014-01-17",
            "close_approach_date_full": "2014-Jan-17 15:42",
            "epoch_date_close_approach": 1389973320000,
            "relative_velocity": {
                "kilometers_per_second": "24.8065124047",
                "kilometers_per_hour": "89303.4446570744",
                "miles_per_hour": "55489.6875981694"
            },
            "miss_distance": {
                "astronomical": "0.048123323",
                "lunar": "18.719972647",
                "kilometers": "7199146.61812201",
                "miles": "4473342.276863338"
            },
            "orbiting_body": "Merc"
        },
        {
            "close_approach_date": "2014-03-24",
            "close_approach_date_full": "2014-Mar-24 00:32",
            "epoch_date_close_approach": 1395621120000,
            "relative_velocity": {
                "kilometers_per_second": "19.4966520226",
                "kilometers_per_hour": "70187.9472814266",
                "miles_per_hour": "43612.0609093953"
            },
            "miss_distance": {
                "astronomical": "0.1559746654",
                "lunar": "60.6741448406",
                "kilometers": "23333477.717802698",
                "miles": "14498750.7378373124"
            },
            "orbiting_body": "Earth"
        }
    ],
    "orbital_data": {
        "orbit_id": "4",
        "orbit_determination_date": "2017-04-06 08:41:43",
        "first_observation_date": "2014-04-04",
        "last_observation_date": "2014-04-07",
        "data_arc_in_days": 3,
        "observations_used": 9,
        "orbit_uncertainty": "9",
        "minimum_orbit_intersection": ".0293377",
        "jupiter_tisserand_invariant": "5.598",
        "epoch_osculation": "2456752.5",
        "eccentricity": ".7150223505500758",
        "semi_major_axis": "1.042827400631548",
        "inclination": "13.77500680137749",
        "ascending_node_longitude": "13.43849579125429",
        "orbital_period": "388.9708694826246",
        "perihelion_distance": ".2971825014139529",
        "perihelion_argument": "39.56189958286892",
        "aphelion_distance": "1.788472299849143",
        "perihelion_time": "2456684.731663351067",
        "mean_anomaly": "62.72089533611124",
        "mean_motion": ".925519179569516",
        "equinox": "J2000",
        "orbit_class": {
            "orbit_class_type": "APO",
            "orbit_class_description": "Near-Earth asteroid orbits which cross the Earth’s orbit similar to that of 1862 Apollo",
            "orbit_class_range": "a (semi-major axis) > 1.0 AU; q (perihelion) < 1.017 AU"
        }
    },
    "is_sentry_object": false
}